{"type": "FeatureCollection", "features": [ {"type": "Feature", "properties": {"norad_id": 37483, "name": "COSMOS 2251 DEB", "group": "cosmos-2251-debris", "lat": -60.66761898295465, "lon": 84.46312769528521, "alt_km": 692.1412159392648, "timestamp": "2025-12-27T19:21:59.142523+00:00", "meta": {"OBJECT_NAME": "COSMOS 2251 DEB", "OBJECT_ID": "1993-036BLL", "EPOCH": "2025-12-24T01:50:58.185312", "MEAN_MOTION": 14.43572585, "ECCENTRICITY": 0.00936557, "INCLINATION": 73.9741, "RA_OF_ASC_NODE": 122.1834, "ARG_OF_PERICENTER": 326.1341, "MEAN_ANOMALY": 33.3856, "EPHEMERIS_TYPE": 0, "CLASSIFICATION_TYPE": "U", "NORAD_CAT_ID": 37483, "ELEMENT_SET_NO": 999, "REV_AT_EPOCH": 65443, "BSTAR": 0.00020999686, "MEAN_MOTION_DOT": 7.21e-06, "MEAN_MOTION_DDOT": 0}, "tle": {"line1": "1 37483U 93036BLL 25358.07706233  .00000721  00000+0  21000-3 0  9992", "line2": "2 37483  73.9741 122.1834 0093655 326.1341  33.3856 14.43572585654431"}}, "geometry": {"type": "Point", "coordinates": [84.46312769528521, -60.66761898295465]}}, {"type": "Feature", "properties": {"norad_id": 37484, "name": "COSMOS 2251 DEB", "group": "cosmos-2251-debris", "lat": 73.79605330579433, "lon": -92.37722518233163, "alt_km": 760.3676747379777, "timestamp": "2025-12-27T19:21:59.142532+00:00", "meta": {"OBJECT_NAME": "COSMOS 2251 DEB", "OBJECT_ID": "1993-036BLM", "EPOCH": "2025-12-23T22:01:02.179776", "MEAN_MOTION": 14.41832075, "ECCENTRICITY": 0.0039304, "INCLINATION": 73.821, "RA_OF_ASC_NODE": 187.4539, "ARG_OF_PERICENTER": 220.8433, "MEAN_ANOMALY": 207.6544, "EPHEMERIS_TYPE": 0, "CLASSIFICATION_TYPE": "U", "NORAD_CAT_ID": 37484, "ELEMENT_SET_NO": 999, "REV_AT_EPOCH": 65540, "BSTAR": 0.00075175, "MEAN_MOTION_DOT": 2.453e-05, "MEAN_MOTION_DDOT": 0}, "tle": {"line1": "1 37484U 93036BLM 25357.91738634  .00002453  00000+0  75175-3 0  9991", "line2": "2 37484  73.8210 187.4539 0039304 220.8433 207.6544 14.41832075655400"}}, "geometry": {"type": "Point", "coordinates": [-92.37722518233163, 73.79605330579433]}}, {"type": "Feature", "properties": {"norad_id": 37486, "name": "COSMOS 2251 DEB", "group": "cosmos-2251-debris", "lat": -61.28207831756196, "lon": -60.34556804449495, "alt_km": 786.0934041725523, "timestamp": "2025-12-27T19:21:59.142542+00:00", "meta": {"OBJECT_NAME": "COSMOS 2251 DEB", "OBJECT_ID": "1993-036BLP", "EPOCH": "2025-12-25T00:47:37.338720", "MEAN_MOTION": 14.13431538, "ECCENTRICITY": 0.02312079, "INCLINATION": 73.6929, "RA_OF_ASC_NODE": 92.3714, "ARG_OF_PERICENTER": 318.5034, "MEAN_ANOMALY": 220.7861, "EPHEMERIS_TYPE": 0, "CLASSIFICATION_TYPE": "U", "NORAD_CAT_ID": 37486, "ELEMENT_SET_NO": 999, "REV_AT_EPOCH": 63543, "BSTAR": 0.0021109743, "MEAN_MOTION_DOT": 5.095e-05, "MEAN_MOTION_DDOT": 0}, "tle": {"line1": "1 37486U 93036BLP 25359.03307105  .00005095  00000+0  21110-2 0  9997", "line2": "2 37486  73.6929  92.3714 0231207 318.5034 220.7861 14.13431538635431"}}, "geometry": {"type": "Point", "coordinates": [-60.34556804449495, -61.28207831756196]}}, {"type": "Feature", "properties": {"norad_id": 37487, "name": "COSMOS 2251 DEB", "group": "cosmos-2251-debris", "lat": 58.44888919421365, "lon": -169.8385914030879, "alt_km": 610.3467167294875, "timestamp": "2025-12-27T19:21:59.142551+00:00", "meta": {"OBJECT_NAME": "COSMOS 2251 DEB", "OBJECT_ID": "1993-036BLQ", "EPOCH": "2025-12-27T04:30:08.702208", "MEAN_MOTION": 14.81651579, "ECCENTRICITY": 0.002711, "INCLINATION": 73.9021, "RA_OF_ASC_NODE": 163.3389, "ARG_OF_PERICENTER": 357.6059, "MEAN_ANOMALY": 2.4982, "EPHEMERIS_TYPE": 0, "CLASSIFICATION_TYPE": "U", "NORAD_CAT_ID": 37487, "ELEMENT_SET_NO": 999, "REV_AT_EPOCH": 81459, "BSTAR": 0.0034781, "MEAN_MOTION_DOT": 0.00027623, "MEAN_MOTION_DDOT": 0}, "tle": {"line1": "1 37487U 93036BLQ 25361.18760072  .00027623  00000+0  34781-2 0  9992", "line2": "2 37487  73.9021 163.3389 0027110 357.6059   2.4982 14.81651579814591"}}, "geometry": {"type": "Point", "coordinates": [-169.8385914030879, 58.44888919421365]}}, {"type": "Feature", "properties": {"norad_id": 37491, "name": "COSMOS 2251 DEB", "group": "cosmos-2251-debris", "lat": -14.115775074782771, "lon": 72.99456095837647, "alt_km": 815.3056883937998, "timestamp": "2025-12-27T19:21:59.142560+00:00", "meta": {"OBJECT_NAME": "COSMOS 2251 DEB", "OBJECT_ID": "1993-036BLU", "EPOCH": "2025-12-26T23:11:35.060064", "MEAN_MOTION": 13.75325101, "ECCENTRICITY": 0.0316193, "INCLINATION": 73.9048, "RA_OF_ASC_NODE": 250.2396, "ARG_OF_PERICENTER": 240.707, "MEAN_ANOMALY": 116.2112, "EPHEMERIS_TYPE": 0, "CLASSIFICATION_TYPE": "U", "NORAD_CAT_ID": 37491, "ELEMENT_SET_NO": 999, "REV_AT_EPOCH": 55942, "BSTAR": 0.00089223, "MEAN_MOTION_DOT": 1.208e-05, "MEAN_MOTION_DDOT": 0}, "tle": {"line1": "1 37491U 93036BLU 25360.96637801  .00001208  00000+0  89223-3 0  9998", "line2": "2 37491  73.9048 250.2396 0316193 240.7070 116.2112 13.75325101559424"}}, "geometry": {"type": "Point", "coordinates": [72.99456095837647, -14.115775074782771]}}, {"type": "Feature", "properties": {"norad_id": 37498, "name": "COSMOS 2251 DEB", "group": "cosmos-2251-debris", "lat": -50.16892781700465, "lon": -4.556205145648091, "alt_km": 708.201906978984, "timestamp": "2025-12-27T19:21:59.142569+00:00", "meta": {"OBJECT_NAME": "COSMOS 2251 DEB", "OBJECT_ID": "1993-036BMB", "EPOCH": "2025-12-26T04:20:30.755328", "MEAN_MOTION": 14.54866215, "ECCENTRICITY": 0.0011817, "INCLINATION": 74.0361, "RA_OF_ASC_NODE": 158.4484, "ARG_OF_PERICENTER": 221.8173, "MEAN_ANOMALY": 138.2088, "EPHEMERIS_TYPE": 0, "CLASSIFICATION_TYPE": "U", "NORAD_CAT_ID": 37498, "ELEMENT_SET_NO": 999, "REV_AT_EPOCH": 65550, "BSTAR": 0.00091877, "MEAN_MOTION_DOT": 3.923e-05, "MEAN_MOTION_DDOT": 0}, "tle": {"line1": "1 37498U 93036BMB 25360.18091152  .00003923  00000+0  91877-3 0  9996", "line2": "2 37498  74.0361 158.4484 0011817 221.8173 138.2088 14.54866215655503"}}, "geometry": {"type": "Point", "coordinates": [-4.556205145648091, -50.16892781700465]}}, {"type": "Feature", "properties": {"norad_id": 37499, "name": "COSMOS 2251 DEB", "group": "cosmos-2251-debris", "lat": 52.911476987498055, "lon": -43.14712296864711, "alt_km": 759.0460027901127, "timestamp": "2025-12-27T19:21:59.142578+00:00", "meta": {"OBJECT_NAME": "COSMOS 2251 DEB", "OBJECT_ID": "1993-036BMC", "EPOCH": "2025-12-27T02:22:06.002976", "MEAN_MOTION": 14.34356521, "ECCENTRICITY": 0.00275707, "INCLINATION": 74.0385, "RA_OF_ASC_NODE": 295.9028, "ARG_OF_PERICENTER": 8.092, "MEAN_ANOMALY": 352.067, "EPHEMERIS_TYPE": 0, "CLASSIFICATION_TYPE": "U", "NORAD_CAT_ID": 37499, "ELEMENT_SET_NO": 999, "REV_AT_EPOCH": 85355, "BSTAR": 0.00020422955, "MEAN_MOTION_DOT": 5.51e-06, "MEAN_MOTION_DDOT": 0}, "tle": {"line1": "1 37499U 93036BMC 25361.09868059  .00000551  00000+0  20423-3 0  9999", "line2": "2 37499  74.0385 295.9028 0027570   8.0920 352.0670 14.34356521853559"}}, "geometry": {"type": "Point", "coordinates": [-43.14712296864711, 52.911476987498055]}}, {"type": "Feature", "properties": {"norad_id": 37528, "name": "COSMOS 2251 DEB", "group": "cosmos-2251-debris", "lat": 8.95201788524459, "lon": 96.40730072346052, "alt_km": 734.634431364505, "timestamp": "2025-12-27T19:21:59.142587+00:00", "meta": {"OBJECT_NAME": "COSMOS 2251 DEB", "OBJECT_ID": "1993-036BNH", "EPOCH": "2025-12-25T12:42:07.093728", "MEAN_MOTION": 14.50565382, "ECCENTRICITY": 0.0021139, "INCLINATION": 74.0377, "RA_OF_ASC_NODE": 98.1019, "ARG_OF_PERICENTER": 245.0707, "MEAN_ANOMALY": 114.8257, "EPHEMERIS_TYPE": 0, "CLASSIFICATION_TYPE": "U", "NORAD_CAT_ID": 37528, "ELEMENT_SET_NO": 999, "REV_AT_EPOCH": 86116, "BSTAR": 0.00049222, "MEAN_MOTION_DOT": 1.907e-05, "MEAN_MOTION_DDOT": 0}, "tle": {"line1": "1 37528U 93036BNH 25359.52924877  .00001907  00000+0  49222-3 0  9992", "line2": "2 37528  74.0377  98.1019 0021139 245.0707 114.8257 14.50565382861163"}}, "geometry": {"type": "Point", "coordinates": [96.40730072346052, 8.95201788524459]}}, {"type": "Feature", "properties": {"norad_id": 37530, "name": "COSMOS 2251 DEB", "group": "cosmos-2251-debris", "lat": 47.85592607082869, "lon": 107.61017375278298, "alt_km": 782.9944738243657, "timestamp": "2025-12-27T19:21:59.142596+00:00", "meta": {"OBJECT_NAME": "COSMOS 2251 DEB", "OBJECT_ID": "1993-036BNK", "EPOCH": "2025-12-26T15:07:05.651328", "MEAN_MOTION": 14.34521446, "ECCENTRICITY": 0.0026474, "INCLINATION": 74.037, "RA_OF_ASC_NODE": 308.2034, "ARG_OF_PERICENTER": 6.4015, "MEAN_ANOMALY": 166.8607, "EPHEMERIS_TYPE": 0, "CLASSIFICATION_TYPE": "U", "NORAD_CAT_ID": 37530, "ELEMENT_SET_NO": 999, "REV_AT_EPOCH": 85431, "BSTAR": 0.00025818, "MEAN_MOTION_DOT": 7.05e-06, "MEAN_MOTION_DDOT": 0}, "tle": {"line1": "1 37530U 93036BNK 25360.62992652  .00000705  00000+0  25818-3 0  9994", "line2": "2 37530  74.0370 308.2034 0026474   6.4015 166.8607 14.34521446854319"}}, "geometry": {"type": "Point", "coordinates": [107.61017375278298, 47.85592607082869]}}, {"type": "Feature", "properties": {"norad_id": 37532, "name": "COSMOS 2251 DEB", "group": "cosmos-2251-debris", "lat": -21.317184148079726, "lon": -178.61064081203455, "alt_km": 748.1842705042463, "timestamp": "2025-12-27T19:21:59.142605+00:00", "meta": {"OBJECT_NAME": "COSMOS 2251 DEB", "OBJECT_ID": "1993-036BNM", "EPOCH": "2025-12-24T19:59:09.008160", "MEAN_MOTION": 14.42423835, "ECCENTRICITY": 0.00162225, "INCLINATION": 74.0486, "RA_OF_ASC_NODE": 193.3082, "ARG_OF_PERICENTER": 292.8067, "MEAN_ANOMALY": 87.0164, "EPHEMERIS_TYPE": 0, "CLASSIFICATION_TYPE": "U", "NORAD_CAT_ID": 37532, "ELEMENT_SET_NO": 999, "REV_AT_EPOCH": 85090, "BSTAR": 0.00019035251, "MEAN_MOTION_DOT": 6.04e-06, "MEAN_MOTION_DDOT": 0}, "tle": {"line1": "1 37532U 93036BNM 25358.83274315  .00000604  00000+0  19035-3 0  9997", "line2": "2 37532  74.0486 193.3082 0016222 292.8067  87.0164 14.42423835850908"}}, "geometry": {"type": "Point", "coordinates": [-178.61064081203455, -21.317184148079726]}}]}